NORAD_CAT_ID,OBJECT_NAME,OBJECT_TYPE,EPOCH,MEAN_MOTION,ECCENTRICITY,INCLINATION,RA_OF_ASC_NODE,ARG_OF_PERICENTER,MEAN_ANOMALY,BSTAR,MEAN_MOTION_DOT,MEAN_MOTION_DDOT,TLE_LINE0,TLE_LINE1,TLE_LINE2,SEMIMAJOR_AXIS,PERIOD,APOGEE,PERIGEE,DECAYED
50819.0,STARLINK-3327,PAYLOAD,2022-12-26 02:26:33,15.08830426,0.0002809,53.2186,19.6172,25.2922,334.8207,2.0438e-05,3.7e-07,0.0,0 STARLINK-3327,1 50819U 22001S   22360.10177985  .00000037  00000-0  20438-4 0  9990,2 50819  53.2186  19.6172 0002809  25.2922 334.8207 15.08830426 55045,6917.91,95.438,541.7180000000002,537.831,0.0
50819.0,STARLINK-3327,PAYLOAD,2022-12-26 11:58:52,15.08835537,0.0002791,53.2186,17.8331,28.3679,331.7464,2.9287e-05,1.78e-06,0.0,0 STARLINK-3327,1 50819U 22001S   22360.49921835  .00000178  00000-0  29287-4 0  9990,2 50819  53.2186  17.8331 0002791  28.3679 331.7464 15.08835537 53907,6917.894,95.438,541.69,537.828,0.0
50819.0,STARLINK-3327,PAYLOAD,2022-12-26 18:20:24,15.08843084,0.0002704,53.2181,16.6445,24.8927,335.2195,6.2628e-05,7.08e-06,0.0,0 STARLINK-3327,1 50819U 22001S   22360.76417201  .00000708  00000-0  62628-4 0  9992,2 50819  53.2181  16.6445 0002704  24.8927 335.2195 15.08843084 55140,6917.871,95.437,541.607,537.865,0.0
50819.0,STARLINK-3327,PAYLOAD,2022-12-27 10:14:15,15.08845316,0.0002808,53.2187,13.6693,26.7311,333.3826,0.0001062,1.402e-05,0.0,0 STARLINK-3327,1 50819U 22001S   22361.42656826  .00001402  00000-0  10620-3 0  9990,2 50819  53.2187  13.6693 0002808  26.7311 333.3826 15.08845316 54049,6917.864000000001,95.437,541.672,537.7869999999998,0.0
50819.0,STARLINK-3327,PAYLOAD,2022-12-27 18:11:10,15.08851008,0.0002651,53.2192,12.1828,24.7295,335.3824,0.00015968,2.255e-05,0.0,0 STARLINK-3327,1 50819U 22001S   22361.75776038  .00002255  00000-0  15968-3 0  9991,2 50819  53.2192  12.1828 0002651  24.7295 335.3824 15.08851008 54094,6917.847,95.437,541.5459999999998,537.878,0.0
50819.0,STARLINK-3327,PAYLOAD,2022-12-28 00:32:42,15.08852071,0.0002747,53.2189,10.9929,27.5635,332.5502,0.00016776,2.383e-05,0.0,0 STARLINK-3327,1 50819U 22001S   22362.02271886  .00002383  00000-0  16776-3 0  9993,2 50819  53.2189  10.9929 0002747  27.5635 332.5502 15.08852071 54131,6917.843000000003,95.437,541.609,537.808,0.0
50819.0,STARLINK-3327,PAYLOAD,2022-12-29 06:45:04,15.08832007,0.0002621,53.2196,5.3433,26.153,333.9595,-8.3947e-05,-1.624e-05,0.0,0 STARLINK-3327,1 50819U 22001S   22363.28129785 -.00001624  00000-0 -83947-4 0  9996,2 50819  53.2196   5.3433 0002621  26.1530 333.9595 15.08832007 55525,6917.905,95.438,541.5830000000002,537.957,0.0
50819.0,STARLINK-3327,PAYLOAD,2022-12-29 11:31:13,15.08828867,0.0002593,53.2185,4.4491,27.3465,332.7664,-0.00011796,-2.165e-05,0.0,0 STARLINK-3327,1 50819U 22001S   22363.48002207 -.00002165  00000-0 -11796-3 0  9990,2 50819  53.2185   4.4491 0002593  27.3465 332.7664 15.08828867 54358,6917.9140000000025,95.438,541.573,537.986,0.0
50819.0,STARLINK-3327,PAYLOAD,2022-12-29 17:52:47,15.08822223,0.0002669,53.2189,3.2598,26.0649,334.0477,-0.00015681,-2.782e-05,0.0,0 STARLINK-3327,1 50819U 22001S   22363.74498943 -.00002782  00000-0 -15681-3 0  9997,2 50819  53.2189   3.2598 0002669  26.0649 334.0477 15.08822223 55595,6917.935,95.439,541.646,537.953,0.0
50819.0,STARLINK-3327,PAYLOAD,2022-12-30 03:25:05,15.0883247,0.0003018999999999,53.2178,1.4794,24.4882,335.6253,-0.00017661,-3.098e-05,0.0,0 STARLINK-3327,1 50819U 22001S   22364.14242695 -.00003098  00000-0 -17661-3 0  9994,2 50819  53.2178   1.4794 0003019  24.4882 335.6253 15.08832470 55653,6917.903,95.438,541.857,537.68,0.0
50819.0,STARLINK-3327,PAYLOAD,2022-12-30 06:35:51,15.0882918,0.0003474,53.2179,0.8861,19.4041,340.7083,-6.8463e-05,-1.378e-05,0.0,0 STARLINK-3327,1 50819U 22001S   22364.27490688 -.00001378  00000-0 -68463-4 0  9991,2 50819  53.2179   0.8861 0003474  19.4041 340.7083 15.08829180 54479,6917.913000000001,95.438,542.182,537.375,0.0
50819.0,STARLINK-3327,PAYLOAD,2022-12-30 11:22:00,15.08839501,0.0002765,53.2186,359.9903,23.943,336.1690000000001,-2.1375e-05,-6.29e-06,0.0,0 STARLINK-3327,1 50819U 22001S   22364.47361890 -.00000629  00000-0 -21375-4 0  9994,2 50819  53.2186 359.9903 0002765  23.9430 336.1690 15.08839501 55704,6917.882,95.438,541.66,537.8340000000002,0.0
50819.0,STARLINK-3327,PAYLOAD,2022-12-31 06:26:36,15.08854477,0.0002804,53.2185,356.4208,22.8901,337.2216,0.00034361,5.187e-05,0.0,0 STARLINK-3327,1 50819U 22001S   22365.26847983  .00005187  00000-0  34361-3 0  9994,2 50819  53.2185 356.4208 0002804  22.8901 337.2216 15.08854477 55826,6917.8359999999975,95.437,541.641,537.761,0.0
50819.0,STARLINK-3327,PAYLOAD,2022-12-31 11:12:46,15.08847678,0.0002911,53.2184,355.531,23.6715,336.441,0.00026604,3.949e-05,0.0,0 STARLINK-3327,1 50819U 22001S   22365.46720689  .00003949  00000-0  26604-3 0  9994,2 50819  53.2184 355.5310 0002911  23.6715 336.4410 15.08847678 55855,6917.857,95.437,541.736,537.7080000000002,0.0
50819.0,STARLINK-3327,PAYLOAD,2022-12-31 15:58:56,15.08846471,0.0002849,53.2193,354.6378,27.3886,332.7256,0.00021947,3.207e-05,0.0,0 STARLINK-3327,1 50819U 22001S   22365.66592832  .00003207  00000-0  21947-3 0  9995,2 50819  53.2193 354.6378 0002849  27.3886 332.7256 15.08846471 54686,6917.861,95.437,541.697,537.755,0.0
50819.0,STARLINK-3327,PAYLOAD,2023-01-01 04:42:02,15.08832104,0.000251,53.2191,352.2598,26.6887,333.4234,6.9547e-05,8.18e-06,0.0,0 STARLINK-3327,1 50819U 22001S   23001.19586073  .00000818  00000-0  69547-4 0  9995,2 50819  53.2191 352.2598 0002510  26.6887 333.4234 15.08832104 55964,6917.905,95.438,541.506,538.033,0.0
50819.0,STARLINK-3327,PAYLOAD,2023-01-01 11:03:35,15.08827237,0.0003078999999999,53.2186,351.0717,16.3102,343.7989,1.3821e-06,-2.67e-06,0.0,0 STARLINK-3327,1 50819U 22001S   23001.46082769 -.00000267  00000-0  13821-5 0  9992,2 50819  53.2186 351.0717 0003079  16.3102 343.7989 15.08827237 56003,6917.919,95.438,541.914,537.654,0.0
50819.0,STARLINK-3327,PAYLOAD,2023-01-01 22:11:17,15.08830363,0.0002697,53.2193,348.98800000000006,23.5268,336.5848,-0.00015688,-2.784e-05,0.0,0 STARLINK-3327,1 50819U 22001S   23001.92451229 -.00002784  00000-0 -15688-3 0  9992,2 50819  53.2193 348.9880 0002697  23.5268 336.5848 15.08830363 54876,6917.91,95.438,541.641,537.909,0.0
50819.0,STARLINK-3327,PAYLOAD,2023-01-02 06:08:12,15.08840486,0.0002788999999999,53.217,347.5021,22.3543,337.75699999999995,-0.00014318,-2.567e-05,0.0,0 STARLINK-3327,1 50819U 22001S   23002.25570599 -.00002567  00000-0 -14318-3 0  9999,2 50819  53.2170 347.5021 0002789  22.3543 337.7570 15.08840486 56120,6917.879,95.438,541.673,537.815,0.0
50819.0,STARLINK-3327,PAYLOAD,2023-01-02 09:18:58,15.08845657,0.0002677,53.2187,346.9072,26.6114,333.5015,-0.00011985,-2.196e-05,0.0,0 STARLINK-3327,1 50819U 22001S   23002.38818194 -.00002196  00000-0 -11985-3 0  9994,2 50819  53.2187 346.9072 0002677  26.6114 333.5015 15.08845657 54945,6917.863,95.437,541.58,537.876,0.0
50819.0,STARLINK-3327,PAYLOAD,2023-01-02 15:40:30,15.08856078,0.0002816,53.2191,345.718,25.727,334.3862,-8.903700000000001e-05,-1.706e-05,0.0,0 STARLINK-3327,1 50819U 22001S   23002.65313302 -.00001706  00000-0 -89037-4 0  9995,2 50819  53.2191 345.7180 0002816  25.7270 334.3862 15.08856078 56181,6917.831,95.437,541.644,537.748,0.0
50819.0,STARLINK-3327,PAYLOAD,2023-01-03 10:45:08,15.0883348,0.0002804,53.2189,342.1496,26.9543,333.1595,0.00017924,2.565e-05,0.0,0 STARLINK-3327,1 50819U 22001S   23003.44802070  .00002565  00000-0  17924-3 0  9995,2 50819  53.2189 342.1496 0002804  26.9543 333.1595 15.08833480 55105,6917.9,95.438,541.705,537.826,0.0
50819.0,STARLINK-3327,PAYLOAD,2023-01-03 15:31:18,15.08830441,0.0002918999999999,53.2195,341.256,28.1221,331.9929,0.0001250999999999,1.703e-05,0.0,0 STARLINK-3327,1 50819U 22001S   23003.64674533  .00001703  00000-0  12510-3 0  9997,2 50819  53.2195 341.2560 0002919  28.1221 331.9929 15.08830441 56335,6917.91,95.438,541.794,537.755,0.0
50819.0,STARLINK-3327,PAYLOAD,2023-01-04 10:35:56,15.08840323,0.0003061,53.2194,337.6874,27.9532,332.1624,3.9968e-05,3.48e-06,0.0,0 STARLINK-3327,1 50819U 22001S   23004.44162629  .00000348  00000-0  39968-4 0  9995,2 50819  53.2194 337.6874 0003061  27.9532 332.1624 15.08840323 55257,6917.879,95.438,541.862,537.627,0.0
50819.0,STARLINK-3327,PAYLOAD,2023-01-04 15:22:04,15.08852344,0.0002811,53.219,336.7977,26.6206,333.49300000000005,0.00013981,1.938e-05,0.0,0 STARLINK-3327,1 50819U 22001S   23004.64033437  .00001938  00000-0  13981-3 0  9993,2 50819  53.2190 336.7977 0002811  26.6206 333.4930 15.08852344 56489,6917.843000000003,95.437,541.6519999999998,537.763,0.0
50819.0,STARLINK-3327,PAYLOAD,2023-01-04 21:43:37,15.08857004,0.0002785,53.2187,335.6079,26.4254,333.6880000000001,0.00011478,1.5399999999999998e-05,0.0,0 STARLINK-3327,1 50819U 22001S   23004.90528983  .00001540  00000-0  11478-3 0  9995,2 50819  53.2187 335.6079 0002785  26.4254 333.6880 15.08857004 55323,6917.828,95.436,541.62,537.7669999999998,0.0
50819.0,STARLINK-3327,PAYLOAD,2023-01-05 07:15:55,15.08863232,0.0002579,53.2189,333.8247,29.0537,331.0598,0.00015396,2.164e-05,0.0,0 STARLINK-3327,1 50819U 22001S   23005.30272207  .00002164  00000-0  15396-3 0  9991,2 50819  53.2189 333.8247 0002579  29.0537 331.0598 15.08863232 56583,6917.809,95.436,541.4580000000002,537.89,0.0
50819.0,STARLINK-3327,PAYLOAD,2023-01-05 15:12:50,15.08859705,0.0002836999999999,53.2189,332.3373,26.2308,333.8828,0.00021696,3.168e-05,0.0,0 STARLINK-3327,1 50819U 22001S   23005.63391935  .00003168  00000-0  21696-3 0  9992,2 50819  53.2189 332.3373 0002837  26.2308 333.8828 15.08859705 55438,6917.82,95.436,541.648,537.7230000000002,0.0
50819.0,STARLINK-3327,PAYLOAD,2023-01-07 03:46:43,15.08844486,0.0002726,53.2176,325.4967,27.159,332.9545,-4.3923e-05,-9.88e-06,0.0,0 STARLINK-3327,1 50819U 22001S   23007.15745320 -.00000988  00000-0 -43923-4 0  9999,2 50819  53.2176 325.4967 0002726  27.1590 332.9545 15.08844486 56860,6917.866999999998,95.437,541.617,537.846,0.0
